{"type": "FeatureCollection", "features": [{"type": "Feature", "properties": {"norad_id": 66454, "name": "VIASAT-3 F2", "group": "last-30-days", "lat": 2.5207256174304584, "lon": -39.93852293306112, "alt_km": 24536.509494427326, "timestamp": "2025-12-14T03:55:51.546566+00:00", "meta": {"OBJECT_NAME": "VIASAT-3 F2", "OBJECT_ID": "2025-261A", "EPOCH": "2025-12-12T22:24:17.478432", "MEAN_MOTION": 2.09869596, "ECCENTRICITY": 0.2249784, "INCLINATION": 5.3891, "RA_OF_ASC_NODE": 292.3457, "ARG_OF_PERICENTER": 185.8732, "MEAN_ANOMALY": 3.755, "EPHEMERIS_TYPE": 0, "CLASSIFICATION_TYPE": "U", "NORAD_CAT_ID": 66454, "ELEMENT_SET_NO": 999, "REV_AT_EPOCH": 64, "BSTAR": 0, "MEAN_MOTION_DOT": -8.1e-07, "MEAN_MOTION_DDOT": 0}, "tle": {"line1": "1 66454U 25261A   25346.93353563 -.00000081  00000+0  00000+0 0  9996", "line2": "2 66454   5.3891 292.3457 2249784 185.8732   3.7550  2.09869596   649"}}, "geometry": {"type": "Point", "coordinates": [-39.93852293306112, 2.5207256174304584]}}, {"type": "Feature", "properties": {"norad_id": 66455, "name": "ATLAS 5 CENTAUR R/B", "group": "last-30-days", "lat": 4.209862905259319, "lon": -25.432086441674848, "alt_km": 21965.12022134064, "timestamp": "2025-12-14T03:55:51.546618+00:00", "meta": {"OBJECT_NAME": "ATLAS 5 CENTAUR R/B", "OBJECT_ID": "2025-261B", "EPOCH": "2025-12-13T05:33:47.101824", "MEAN_MOTION": 2.28260007, "ECCENTRICITY": 0.23294381, "INCLINATION": 6.1451, "RA_OF_ASC_NODE": 291.5668, "ARG_OF_PERICENTER": 186.583, "MEAN_ANOMALY": 189.0602, "EPHEMERIS_TYPE": 0, "CLASSIFICATION_TYPE": "U", "NORAD_CAT_ID": 66455, "ELEMENT_SET_NO": 999, "REV_AT_EPOCH": 66, "BSTAR": 0, "MEAN_MOTION_DOT": -7.4e-07, "MEAN_MOTION_DDOT": 0}, "tle": {"line1": "1 66455U 25261B   25347.23179516 -.00000074  00000+0  00000+0 0  9997", "line2": "2 66455   6.1451 291.5668 2329438 186.5830 189.0602  2.28260007   669"}}, "geometry": {"type": "Point", "coordinates": [-25.432086441674848, 4.209862905259319]}}, {"type": "Feature", "properties": {"norad_id": 66456, "name": "STARLINK-35643", "group": "last-30-days", "lat": 26.376307670970135, "lon": -148.7441368954561, "alt_km": 441.6085934760549, "timestamp": "2025-12-14T03:55:51.546637+00:00", "meta": {"OBJECT_NAME": "STARLINK-35643", "OBJECT_ID": "2025-262A", "EPOCH": "2025-12-13T07:06:13.489344", "MEAN_MOTION": 15.40706429, "ECCENTRICITY": 0.0003395, "INCLINATION": 43.0008, "RA_OF_ASC_NODE": 68.4084, "ARG_OF_PERICENTER": 294.7087, "MEAN_ANOMALY": 65.3416, "EPHEMERIS_TYPE": 0, "CLASSIFICATION_TYPE": "U", "NORAD_CAT_ID": 66456, "ELEMENT_SET_NO": 999, "REV_AT_EPOCH": 564, "BSTAR": 0.001894817, "MEAN_MOTION_DOT": 0.00079705, "MEAN_MOTION_DDOT": 0}, "tle": {"line1": "1 66456U 25262A   25347.29598946  .00079705  00000+0  18948-2 0  9996", "line2": "2 66456  43.0008  68.4084 0003395 294.7087  65.3416 15.40706429  5649"}}, "geometry": {"type": "Point", "coordinates": [-148.7441368954561, 26.376307670970135]}}, {"type": "Feature", "properties": {"norad_id": 66457, "name": "STARLINK-35466", "group": "last-30-days", "lat": 10.628142456225085, "lon": -128.27325717075243, "alt_km": 442.56213522757025, "timestamp": "2025-12-14T03:55:51.546651+00:00", "meta": {"OBJECT_NAME": "STARLINK-35466", "OBJECT_ID": "2025-262B", "EPOCH": "2025-12-13T06:59:46.396608", "MEAN_MOTION": 15.40742084, "ECCENTRICITY": 0.00028743, "INCLINATION": 43.0014, "RA_OF_ASC_NODE": 68.3721, "ARG_OF_PERICENTER": 270.121, "MEAN_ANOMALY": 89.9317, "EPHEMERIS_TYPE": 0, "CLASSIFICATION_TYPE": "U", "NORAD_CAT_ID": 66457, "ELEMENT_SET_NO": 999, "REV_AT_EPOCH": 564, "BSTAR": 0.0016627344, "MEAN_MOTION_DOT": 0.00069895, "MEAN_MOTION_DDOT": 0}, "tle": {"line1": "1 66457U 25262B   25347.29150922  .00069895  00000+0  16627-2 0  9996", "line2": "2 66457  43.0014  68.3721 0002874 270.1210  89.9317 15.40742084  5640"}}, "geometry": {"type": "Point", "coordinates": [-128.27325717075243, 10.628142456225085]}}, {"type": "Feature", "properties": {"norad_id": 66458, "name": "STARLINK-35684", "group": "last-30-days", "lat": 18.584295126636093, "lon": -137.77780561111257, "alt_km": 440.0196629342745, "timestamp": "2025-12-14T03:55:51.546663+00:00", "meta": {"OBJECT_NAME": "STARLINK-35684", "OBJECT_ID": "2025-262C", "EPOCH": "2025-12-13T05:29:38.793408", "MEAN_MOTION": 15.40783286, "ECCENTRICITY": 8.959e-05, "INCLINATION": 42.9987, "RA_OF_ASC_NODE": 68.7638, "ARG_OF_PERICENTER": 196.7838, "MEAN_ANOMALY": 163.2989, "EPHEMERIS_TYPE": 0, "CLASSIFICATION_TYPE": "U", "NORAD_CAT_ID": 66458, "ELEMENT_SET_NO": 999, "REV_AT_EPOCH": 563, "BSTAR": 0.0019860791, "MEAN_MOTION_DOT": 0.00083808, "MEAN_MOTION_DDOT": 0}, "tle": {"line1": "1 66458U 25262C   25347.22892122  .00083808  00000+0  19861-2 0  9998", "line2": "2 66458  42.9987  68.7638 0000895 196.7838 163.2989 15.40783286  5638"}}, "geometry": {"type": "Point", "coordinates": [-137.77780561111257, 18.584295126636093]}}, {"type": "Feature", "properties": {"norad_id": 66459, "name": "STARLINK-35449", "group": "last-30-days", "lat": 2.1402305723638637, "lon": -118.98763279057061, "alt_km": 443.4788421909552, "timestamp": "2025-12-14T03:55:51.546674+00:00", "meta": {"OBJECT_NAME": "STARLINK-35449", "OBJECT_ID": "2025-262D", "EPOCH": "2025-12-13T06:56:32.686080", "MEAN_MOTION": 15.40771765, "ECCENTRICITY": 0.00023477, "INCLINATION": 43.002, "RA_OF_ASC_NODE": 68.3522, "ARG_OF_PERICENTER": 279.745, "MEAN_ANOMALY": 80.3142, "EPHEMERIS_TYPE": 0, "CLASSIFICATION_TYPE": "U", "NORAD_CAT_ID": 66459, "ELEMENT_SET_NO": 999, "REV_AT_EPOCH": 564, "BSTAR": 0.0016140023, "MEAN_MOTION_DOT": 0.00067884, "MEAN_MOTION_DDOT": 0}, "tle": {"line1": "1 66459U 25262D   25347.28926720  .00067884  00000+0  16140-2 0  9990", "line2": "2 66459  43.0020  68.3522 0002347 279.7450  80.3142 15.40771765  5643"}}, "geometry": {"type": "Point", "coordinates": [-118.98763279057061, 2.1402305723638637]}}, {"type": "Feature", "properties": {"norad_id": 66460, "name": "STARLINK-35424", "group": "last-30-days", "lat": -6.052406587291213, "lon": -110.18384291783829, "alt_km": 444.0995187333101, "timestamp": "2025-12-14T03:55:51.546686+00:00", "meta": {"OBJECT_NAME": "STARLINK-35424", "OBJECT_ID": "2025-262E", "EPOCH": "2025-12-13T00:00:07.999776", "MEAN_MOTION": 15.40633341, "ECCENTRICITY": 0.00016002, "INCLINATION": 43.0006, "RA_OF_ASC_NODE": 69.9902, "ARG_OF_PERICENTER": 252.8909, "MEAN_ANOMALY": 313.8379, "EPHEMERIS_TYPE": 0, "CLASSIFICATION_TYPE": "U", "NORAD_CAT_ID": 66460, "ELEMENT_SET_NO": 999, "REV_AT_EPOCH": 568, "BSTAR": 0.0011432771, "MEAN_MOTION_DOT": 0.00047647, "MEAN_MOTION_DDOT": 0}, "tle": {"line1": "1 66460U 25262E   25347.00009259  .00047647  00000+0  11433-2 0  9996", "line2": "2 66460  43.0006  69.9902 0001600 252.8909 313.8379 15.40633341  5687"}}, "geometry": {"type": "Point", "coordinates": [-110.18384291783829, -6.052406587291213]}}, {"type": "Feature", "properties": {"norad_id": 66461, "name": "STARLINK-35132", "group": "last-30-days", "lat": -14.564096674477288, "lon": -100.56120660946509, "alt_km": 444.55540294347793, "timestamp": "2025-12-14T03:55:51.546702+00:00", "meta": {"OBJECT_NAME": "STARLINK-35132", "OBJECT_ID": "2025-262F", "EPOCH": "2025-12-13T06:50:05.351424", "MEAN_MOTION": 15.40732676, "ECCENTRICITY": 0.00029453, "INCLINATION": 43.0047, "RA_OF_ASC_NODE": 68.3192, "ARG_OF_PERICENTER": 273.1864, "MEAN_ANOMALY": 86.8655, "EPHEMERIS_TYPE": 0, "CLASSIFICATION_TYPE": "U", "NORAD_CAT_ID": 66461, "ELEMENT_SET_NO": 999, "REV_AT_EPOCH": 564, "BSTAR": 0.0018567451, "MEAN_MOTION_DOT": 0.00078146, "MEAN_MOTION_DDOT": 0}, "tle": {"line1": "1 66461U 25262F   25347.28478416  .00078146  00000+0  18567-2 0  9995", "line2": "2 66461  43.0047  68.3192 0002945 273.1864  86.8655 15.40732676  5647"}}, "geometry": {"type": "Point", "coordinates": [-100.56120660946509, -14.564096674477288]}}, {"type": "Feature", "properties": {"norad_id": 66462, "name": "STARLINK-35499", "group": "last-30-days", "lat": -22.433337271853524, "lon": -90.479999288202, "alt_km": 445.29793410305956, "timestamp": "2025-12-14T03:55:51.546713+00:00", "meta": {"OBJECT_NAME": "STARLINK-35499", "OBJECT_ID": "2025-262G", "EPOCH": "2025-12-13T06:46:52.262976", "MEAN_MOTION": 15.40754565, "ECCENTRICITY": 0.00035729, "INCLINATION": 42.9973, "RA_OF_ASC_NODE": 68.2996, "ARG_OF_PERICENTER": 287.4084, "MEAN_ANOMALY": 72.6382, "EPHEMERIS_TYPE": 0, "CLASSIFICATION_TYPE": "U", "NORAD_CAT_ID": 66462, "ELEMENT_SET_NO": 999, "REV_AT_EPOCH": 564, "BSTAR": 0.0013019519, "MEAN_MOTION_DOT": 0.00054579, "MEAN_MOTION_DDOT": 0}, "tle": {"line1": "1 66462U 25262G   25347.28254934  .00054579  00000+0  13020-2 0  9996", "line2": "2 66462  42.9973  68.2996 0003572 287.4084  72.6382 15.40754565  5645"}}, "geometry": {"type": "Point", "coordinates": [-90.479999288202, -22.433337271853524]}}, {"type": "Feature", "properties": {"norad_id": 66463, "name": "STARLINK-35463", "group": "last-30-days", "lat": -35.51455761892976, "lon": -66.85659022984956, "alt_km": 446.7572611681717, "timestamp": "2025-12-14T03:55:51.546727+00:00", "meta": {"OBJECT_NAME": "STARLINK-35463", "OBJECT_ID": "2025-262H", "EPOCH": "2025-12-13T06:00:02.000160", "MEAN_MOTION": 15.40763597, "ECCENTRICITY": 0.00013546, "INCLINATION": 43.0006, "RA_OF_ASC_NODE": 68.427, "ARG_OF_PERICENTER": 255.6731, "MEAN_ANOMALY": 308.679, "EPHEMERIS_TYPE": 0, "CLASSIFICATION_TYPE": "U", "NORAD_CAT_ID": 66463, "ELEMENT_SET_NO": 999, "REV_AT_EPOCH": 572, "BSTAR": -0.0033252401, "MEAN_MOTION_DOT": -0.00137031, "MEAN_MOTION_DDOT": 0}, "tle": {"line1": "1 66463U 25262H   25347.25002315 -.00137031  00000+0 -33252-2 0  9994", "line2": "2 66463  43.0006  68.4270 0001354 255.6731 308.6790 15.40763597  5723"}}, "geometry": {"type": "Point", "coordinates": [-66.85659022984956, -35.51455761892976]}}]}